2005/12/02 10:00
LFTH 021000Z 16013KT 9999 FEW015 BKN023 15/11 Q1007 NOSIG
